STARLINK-36352          
1 67567U 26016G   26030.68999604 -.00493869  91070-4 -82561-3 0  9995
2 67567  97.2824  89.0305 0001191  38.2782 321.8583 16.02864720   806
STARLINK-36435          
1 67568U 26016H   26030.68945792 -.00435790  72428-4 -71291-3 0  9998
2 67568  97.2826  89.0292 0000375 146.6759 213.4545 16.03225859   804
STARLINK-36575          
1 67569U 26016J   26032.87811158 -.00106743  63608-5 -24144-3 0  9999
2 67569  97.2785  91.4104 0006319 197.3795 162.7266 15.97385313  1154
STARLINK-36562          
1 67570U 26016K   26030.68896838 -.00445500  75737-4 -71643-3 0  9994
2 67570  97.2827  89.0318 0000243 132.4972 227.6329 16.03516707   803
STARLINK-36578          
1 67571U 26016L   26030.75002315 -.01512244  73190-3 -24915-2 0  9992
2 67571  97.2827  89.0985 0001255  76.5846 276.9999 16.03255571  1930
STARLINK-36350          
1 67572U 26016M   26030.75002315 -.01505366  72729-3 -24535-2 0  9995
2 67572  97.2827  89.0991 0001327  69.5181 285.7353 16.03437768  1844
STARLINK-36588          
1 67573U 26016N   26030.75002315 -.01508057  73157-3 -24271-2 0  9999
2 67573  97.2822  89.0999 0001219  71.9232 285.1455 16.03651240  2001
STARLINK-36594          
1 67574U 26016P   26030.75002315 -.01514261  73830-3 -24191-2 0  9993
2 67574  97.2821  89.1000 0001196  66.7228 291.5761 16.03777338  2004
STARLINK-36400          
1 67575U 26016Q   26030.75002315 -.01485084  71302-3 -23558-2 0  9992
2 67575  97.2824  89.1010 0001205  75.6715 283.9623 16.03892144  1891
STARLINK-36591          
1 67576U 26016R   26030.75002315 -.01479416  70915-3 -23273-2 0  9998
2 67576  97.2821  89.1012 0001153  81.0860 279.8891 16.04031994  1952
STARLINK-36590          
1 67577U 26016S   26030.75002315 -.01481062  71173-3 -23120-2 0  9997
2 67577  97.2818  89.1018 0001301  65.2496 296.9797 16.04161000  1956
STARLINK-36613          
1 67578U 26016T   26030.75002315 -.01477318  70967-3 -22854-2 0  9990
2 67578  97.2817  89.1023 0001168  76.6003 287.0607 16.04312189  1950
